ONEWEB-0340             
1 49206U 21083W   26160.01473183 -.00000280  00000+0 -74417-3 0  9994
2 49206  87.9168 337.0813 0001863 146.0195 214.1057 13.18685067228895
ONEWEB-0341             
1 49207U 21083X   26160.02148527  .00000061  00000+0  12224-3 0  9990
2 49207  87.9163 337.0838 0002080 104.1809 255.9554 13.18685848228912
ONEWEB-0342             
1 49208U 21083Y   26160.01762260  .00000026  00000+0  32357-4 0  9997
2 49208  87.9189 276.0648 0001873 102.5902 257.5441 13.20770735235708
ONEWEB-0343             
1 49209U 21083Z   26160.02992130  .00000011  00000+0 -43101-5 0  9995
2 49209  87.9165 337.0805 0001477  99.4040 260.7259 13.18686242228962
ONEWEB-0344             
1 49210U 21083AA  26159.96884904  .00000258  00000+0  67109-3 0  9991
2 49210  87.8936 321.8784 0002017 104.5560 255.5793 13.13471934229817
ONEWEB-0345             
1 49211U 21083AB  26159.96037962  .00000099  00000+0  23654-3 0  9996
2 49211  87.8955 321.8597 0001978 103.5530 256.5820 13.13470915229823
ONEWEB-0346             
1 49212U 21083AC  26160.02654383  .00000034  00000+0  53096-4 0  9991
2 49212  87.9158 337.0820 0002438  84.0165 276.1245 13.18685497228902
ONEWEB-0348             
1 49213U 21083AD  26159.85600485 -.00000088  00000+0 -24846-3 0  9996
2 49213  87.9193 276.1010 0002481 101.1117 259.0296 13.20770030235716
ONEWEB-0350             
1 49214U 21083AE  26159.97374419  .00000392  00000+0  10463-2 0  9990
2 49214  87.8953 321.8603 0002008 100.2503 259.8853 13.12942731229855
ONEWEB-0351             
1 49215U 21083AF  26160.07639248  .00000015  00000+0  47585-5 0  9998
2 49215  87.9193 276.0556 0001676 127.2517 232.8770 13.20769877235702
ONEWEB-0352             
1 49216U 21083AG  26159.87404852 -.00000164  00000+0 -48321-3 0  9990
2 49216  87.8948 321.8886 0001483 104.5435 255.5858 13.13470743229938
ONEWEB-0354             
1 49217U 21083AH  26160.02773250  .00000058  00000+0  11084-3 0  9997
2 49217  87.9190 276.0645 0002348 103.7970 256.3425 13.20772552235734
ONEWEB-0355             
1 49218U 21083AJ  26159.97914648  .00000341  00000+0  89943-3 0  9992
2 49218  87.8943 321.8691 0001762 101.8990 258.2336 13.13469430229825
ONEWEB-0357             
1 49219U 21083AK  26160.02436323  .00000066  00000+0  12983-3 0  9994
2 49219  87.9190 276.0593 0001808 105.5085 254.6248 13.20772241235734
ONEWEB-0332             
1 49279U 21090A   26160.07401760 -.00000319  00000+0 -89599-3 0  9990
2 49279  87.8959 291.3261 0001637  97.0805 263.0511 13.14502629226516
ONEWEB-0347             
1 49280U 21090B   26160.01425653 -.00000016  00000+0 -70762-4 0  9990
2 49280  87.9190 276.0694 0001727  96.7539 263.3791 13.20770869229961
ONEWEB-0349             
1 49281U 21090C   26160.04625175  .00000075  00000+0  15277-3 0  9997
2 49281  87.9191 276.0638 0001974 101.4986 258.6369 13.20772080228756
ONEWEB-0353             
1 49282U 21090D   26160.06610698  .00000023  00000+0  28398-4 0  9996
2 49282  87.8962 291.3232 0001662  95.7090 264.4229 13.14502633226517
ONEWEB-0356             
1 49283U 21090E   26160.04456759  .00000038  00000+0  61801-4 0  9993
2 49283  87.9190 276.0574 0002324  80.9931 279.1465 13.20772987228758
ONEWEB-0358             
1 49284U 21090F   26160.07432262 -.00028200  00000+0 -69823-1 0  9992
2 49284  87.9243 276.0637 0003452  84.1831 275.9695 13.20558260229482
ONEWEB-0359             
1 49285U 21090G   26160.07150071  .00000015  00000+0  50222-5 0  9997
2 49285  87.9190 276.0518 0002252 102.2827 257.8558 13.20772316229461
ONEWEB-0360             
1 49286U 21090H   26160.06139959 -.00000012  00000+0 -60815-4 0  9996
2 49286  87.9189 276.0601 0002060 104.4846 255.6516 13.20764137228770
ONEWEB-0361             
1 49287U 21090J   26160.04287093  .00000057  00000+0  10848-3 0  9995
2 49287  87.9190 276.0623 0002097  99.6453 260.4917 13.20770570229224
ONEWEB-0362             
1 49288U 21090K   26160.14063867  .00000037  00000+0  58926-4 0  9996
2 49288  87.9162 306.5816 0001795 105.7896 254.3435 13.19723842225851
ONEWEB-0363             
1 49289U 21090L   26160.05801653  .00000008  00000+0 -12775-4 0  9991
2 49289  87.9188 276.0595 0002107  92.8130 267.3244 13.20770421229235
ONEWEB-0364             
1 49290U 21090M   26160.02098825 -.00000007  00000+0 -48674-4 0  9996
2 49290  87.9184 276.0748 0001964 101.2082 258.9272 13.20771353230362
ONEWEB-0365             
1 49291U 21090N   26160.15012169 -.00000015  00000+0 -69397-4 0  9992
2 49291  87.9173 306.5677 0001761  98.1657 261.9675 13.19724089225365
ONEWEB-0366             
1 49292U 21090P   26160.06293184  .00000089  00000+0  20640-3 0  9997
2 49292  87.8957 291.3261 0001916  99.7731 260.3615 13.14502327226493
ONEWEB-0367             
1 49293U 21090Q   26160.05714008 -.00031277  00000+0 -77023-1 0  9990
2 49293  87.9194 276.0609 0003421 238.7660 121.3138 13.20943936228752
ONEWEB-0368             
1 49294U 21090R   26160.03107618  .00000053  00000+0  98488-4 0  9999
2 49294  87.9178 276.0773 0001638  79.0122 281.1196 13.20769985229901
