OBJECT_NAME,OBJECT_ID,EPOCH,MEAN_MOTION,ECCENTRICITY,INCLINATION,RA_OF_ASC_NODE,ARG_OF_PERICENTER,MEAN_ANOMALY,EPHEMERIS_TYPE,CLASSIFICATION_TYPE,NORAD_CAT_ID,ELEMENT_SET_NO,REV_AT_EPOCH,BSTAR,MEAN_MOTION_DOT,MEAN_MOTION_DDOT
ONEWEB-0340,2021-083W,2026-06-09T00:21:12.830112,13.18685067,.0001863,87.9168,337.0813,146.0195,214.1057,0,U,49206,999,22889,-.74417E-3,-.28E-5,0
ONEWEB-0341,2021-083X,2026-06-09T00:30:56.327328,13.18685848,.000208,87.9163,337.0838,104.1809,255.9554,0,U,49207,999,22891,.12224E-3,.61E-6,0
ONEWEB-0342,2021-083Y,2026-06-09T00:25:22.592640,13.20770735,.0001873,87.9189,276.0648,102.5902,257.5441,0,U,49208,999,23570,.32357E-4,.26E-6,0
ONEWEB-0343,2021-083Z,2026-06-09T00:43:05.200320,13.18686242,.0001477,87.9165,337.0805,99.4040,260.7259,0,U,49209,999,22896,-.43101E-5,.11E-6,0
ONEWEB-0344,2021-083AA,2026-06-08T23:15:08.557056,13.13471934,.0002017,87.8936,321.8784,104.5560,255.5793,0,U,49210,999,22981,.67109E-3,.258E-5,0
ONEWEB-0345,2021-083AB,2026-06-08T23:02:56.799168,13.13470915,.0001978,87.8955,321.8597,103.5530,256.5820,0,U,49211,999,22982,.23654E-3,.99E-6,0
ONEWEB-0346,2021-083AC,2026-06-09T00:38:13.386912,13.18685497,.0002438,87.9158,337.0820,84.0165,276.1245,0,U,49212,999,22890,.53096E-4,.34E-6,0
ONEWEB-0348,2021-083AD,2026-06-08T20:32:38.819040,13.20770030,.0002481,87.9193,276.1010,101.1117,259.0296,0,U,49213,999,23571,-.24846E-3,-.88E-6,0
ONEWEB-0350,2021-083AE,2026-06-08T23:22:11.498016,13.12942731,.0002008,87.8953,321.8603,100.2503,259.8853,0,U,49214,999,22985,.10463E-2,.392E-5,0
ONEWEB-0351,2021-083AF,2026-06-09T01:50:00.310272,13.20769877,.0001676,87.9193,276.0556,127.2517,232.8770,0,U,49215,999,23570,.47585E-5,.15E-6,0
ONEWEB-0352,2021-083AG,2026-06-08T20:58:37.792128,13.13470743,.0001483,87.8948,321.8886,104.5435,255.5858,0,U,49216,999,22993,-.48321E-3,-.164E-5,0
ONEWEB-0354,2021-083AH,2026-06-09T00:39:56.088000,13.20772552,.0002348,87.9190,276.0645,103.7970,256.3425,0,U,49217,999,23573,.11084E-3,.58E-6,0
ONEWEB-0355,2021-083AJ,2026-06-08T23:29:58.255872,13.13469430,.0001762,87.8943,321.8691,101.8990,258.2336,0,U,49218,999,22982,.89943E-3,.341E-5,0
ONEWEB-0357,2021-083AK,2026-06-09T00:35:04.983072,13.20772241,.0001808,87.9190,276.0593,105.5085,254.6248,0,U,49219,999,23573,.12983E-3,.66E-6,0
ONEWEB-0332,2021-090A,2026-06-09T01:46:35.120640,13.14502629,.0001637,87.8959,291.3261,97.0805,263.0511,0,U,49279,999,22651,-.89599E-3,-.319E-5,0
ONEWEB-0347,2021-090B,2026-06-09T00:20:31.764192,13.20770869,.0001727,87.9190,276.0694,96.7539,263.3791,0,U,49280,999,22996,-.70762E-4,-.16E-6,0
ONEWEB-0349,2021-090C,2026-06-09T01:06:36.151200,13.20772080,.0001974,87.9191,276.0638,101.4986,258.6369,0,U,49281,999,22875,.15277E-3,.75E-6,0
ONEWEB-0353,2021-090D,2026-06-09T01:35:11.643072,13.14502633,.0001662,87.8962,291.3232,95.7090,264.4229,0,U,49282,999,22651,.28398E-4,.23E-6,0
ONEWEB-0356,2021-090E,2026-06-09T01:04:10.639776,13.20772987,.0002324,87.9190,276.0574,80.9931,279.1465,0,U,49283,999,22875,.61801E-4,.38E-6,0
ONEWEB-0358,2021-090F,2026-06-09T01:47:01.474368,13.20558260,.0003452,87.9243,276.0637,84.1831,275.9695,0,U,49284,999,22948,-.69823E-1,-.282E-3,0
ONEWEB-0359,2021-090G,2026-06-09T01:42:57.661344,13.20772316,.0002252,87.9190,276.0518,102.2827,257.8558,0,U,49285,999,22946,.50222E-5,.15E-6,0
ONEWEB-0360,2021-090H,2026-06-09T01:28:24.924576,13.20764137,.000206,87.9189,276.0601,104.4846,255.6516,0,U,49286,999,22877,-.60815E-4,-.12E-6,0
ONEWEB-0361,2021-090J,2026-06-09T01:01:44.048352,13.20770570,.0002097,87.9190,276.0623,99.6453,260.4917,0,U,49287,999,22922,.10848E-3,.57E-6,0
ONEWEB-0362,2021-090K,2026-06-09T03:22:31.181088,13.19723842,.0001795,87.9162,306.5816,105.7896,254.3435,0,U,49288,999,22585,.58926E-4,.37E-6,0
ONEWEB-0363,2021-090L,2026-06-09T01:23:32.628192,13.20770421,.0002107,87.9188,276.0595,92.8130,267.3244,0,U,49289,999,22923,-.12775E-4,.8E-7,0
ONEWEB-0364,2021-090M,2026-06-09T00:30:13.384800,13.20771353,.0001964,87.9184,276.0748,101.2082,258.9272,0,U,49290,999,23036,-.48674E-4,-.7E-7,0
ONEWEB-0365,2021-090N,2026-06-09T03:36:10.514016,13.19724089,.0001761,87.9173,306.5677,98.1657,261.9675,0,U,49291,999,22536,-.69397E-4,-.15E-6,0
ONEWEB-0366,2021-090P,2026-06-09T01:30:37.310976,13.14502327,.0001916,87.8957,291.3261,99.7731,260.3615,0,U,49292,999,22649,.2064E-3,.89E-6,0
ONEWEB-0367,2021-090Q,2026-06-09T01:22:16.902912,13.20943936,.0003421,87.9194,276.0609,238.7660,121.3138,0,U,49293,999,22875,-.77023E-1,-.31277E-3,0
ONEWEB-0368,2021-090R,2026-06-09T00:44:44.981952,13.20769985,.0001638,87.9178,276.0773,79.0122,281.1196,0,U,49294,999,22990,.98488E-4,.53E-6,0
